GLOBALSTAR M094         
1 39074U 13005C   24231.85213046 -.00000100  00000+0  18640-4 0  9997
2 39074  51.9976  22.6371 0000627  73.3730 286.7206 12.62266909534197
GLOBALSTAR M096         
1 39075U 13005D   24231.86538193 -.00000074  00000+0  16396-3 0  9997
2 39075  52.0073  70.8761 0000632  50.2554 309.8368 12.62268946533110
GLOBALSTAR M078         
1 39076U 13005E   24231.91810899 -.00000070  00000+0  18568-3 0  9999
2 39076  51.9863 155.6364 0000520 222.9368 137.1458 12.62274244531741
GLOBALSTAR M095         
1 39077U 13005F   24231.15261298 -.00000098  00000+0  34341-4 0  9997
2 39077  51.9790 155.3148 0000391 313.5660  46.5174 12.62263273531867
GLOBALSTAR M087         
1 52888U 22064A   24231.72636273 -.00000062  00000+0  12563-3 0  9991
2 52888  51.9779 350.3092 0009772 159.4400 200.6896 13.37582058105897
